<?xml version="1.0" encoding="UTF-8"?>
<kml xmlns="http://www.opengis.net/kml/2.2">
  <Folder>
    <name>BLUE SHARK Heatmap</name>
    <GroundOverlay>
      <name>BLUE SHARK Density</name>
      <Icon>
        <href>blue_shark_overlay.png</href>
      </Icon>
      <LatLonBox>
        <north>-3.225000003999999</north>
        <south>-47.524999996000005</south>
        <east>162.88333333370008</east>
        <west>118.28333333330012</west>
      </LatLonBox>
    </GroundOverlay>
  </Folder>
</kml>
