<?xml version="1.0" encoding="UTF-8"?>
<kml xmlns="http://www.opengis.net/kml/2.2">
  <Folder>
    <name>HAMMERHEAD SHARK Heatmap</name>
    <GroundOverlay>
      <name>HAMMERHEAD SHARK Density</name>
      <Icon>
        <href>hammerhead_shark_overlay.png</href>
      </Icon>
      <LatLonBox>
        <north>-1.025000003999999</north>
        <south>-44.724999996</south>
        <east>158.67499999960003</east>
        <west>109.5750000004001</west>
      </LatLonBox>
    </GroundOverlay>
  </Folder>
</kml>
