<?xml version="1.0" encoding="UTF-8"?>
<kml xmlns="http://www.opengis.net/kml/2.2">
  <Folder>
    <name>LONGTAIL TUNA Heatmap</name>
    <GroundOverlay>
      <name>LONGTAIL TUNA Density</name>
      <Icon>
        <href>longtail_tuna_overlay.png</href>
      </Icon>
      <LatLonBox>
        <north>-0.9583333300000003</north>
        <south>-47.45833333</south>
        <east>158.09166666670012</east>
        <west>108.99166666630003</west>
      </LatLonBox>
    </GroundOverlay>
  </Folder>
</kml>
