<?xml version="1.0" encoding="UTF-8"?>
<kml xmlns="http://www.opengis.net/kml/2.2">
  <Folder>
    <name>SOUTHERN BLUEFIN TUNA Heatmap</name>
    <GroundOverlay>
      <name>SOUTHERN BLUEFIN TUNA Density</name>
      <Icon>
        <href>southern_bluefin_tuna_overlay.png</href>
      </Icon>
      <LatLonBox>
        <north>-0.5083333329999999</north>
        <south>-48.408333336999995</south>
        <east>161.2500000000001</east>
        <west>110.25000000000011</west>
      </LatLonBox>
    </GroundOverlay>
  </Folder>
</kml>
