<?xml version="1.0" encoding="UTF-8"?>
<kml xmlns="http://www.opengis.net/kml/2.2">
  <Folder>
    <name>SPANISH MACKEREL Heatmap</name>
    <GroundOverlay>
      <name>SPANISH MACKEREL Density</name>
      <Icon>
        <href>spanish_mackerel_overlay.png</href>
      </Icon>
      <LatLonBox>
        <north>-0.500000003999999</north>
        <south>-47.499999996</south>
        <east>165.24166666670013</east>
        <west>108.34166666630003</west>
      </LatLonBox>
    </GroundOverlay>
  </Folder>
</kml>
