<?xml version="1.0" encoding="UTF-8"?>
<kml xmlns="http://www.opengis.net/kml/2.2">
  <Folder>
    <name>WHALER SHARK Heatmap</name>
    <GroundOverlay>
      <name>WHALER SHARK Density</name>
      <Icon>
        <href>whaler_shark_overlay.png</href>
      </Icon>
      <LatLonBox>
        <north>-0.8333333330000001</north>
        <south>-44.833333337</south>
        <east>165.24166666670013</east>
        <west>108.34166666630003</west>
      </LatLonBox>
    </GroundOverlay>
  </Folder>
</kml>
