<?xml version="1.0" encoding="UTF-8"?>
<kml xmlns="http://www.opengis.net/kml/2.2">
  <Folder>
    <name>STRIPED MARLIN Heatmap</name>
    <GroundOverlay>
      <name>STRIPED MARLIN Density</name>
      <Icon>
        <href>striped_marlin_overlay.png</href>
      </Icon>
      <LatLonBox>
        <north>-1.1749999999999998</north>
        <south>-47.075</south>
        <east>165.7916666667001</east>
        <west>108.29166666630003</west>
      </LatLonBox>
    </GroundOverlay>
  </Folder>
</kml>
